[{"OBJECT_NAME":"STARLINK-36267","OBJECT_ID":"2025-304G","EPOCH":"2026-03-09T16:36:04.017024","MEAN_MOTION":14.98334276,"ECCENTRICITY":0.00031896,"INCLINATION":70.0015,"RA_OF_ASC_NODE":174.5061,"ARG_OF_PERICENTER":268.4866,"MEAN_ANOMALY":91.5927,"EPHEMERIS_TYPE":0,"CLASSIFICATION_TYPE":"U","NORAD_CAT_ID":67198,"ELEMENT_SET_NO":999,"REV_AT_EPOCH":1385,"BSTAR":0.00069265683,"MEAN_MOTION_DOT":8.182e-5,"MEAN_MOTION_DDOT":0},{"OBJECT_NAME":"SL-19 R\/B","OBJECT_ID":"2009-059D","EPOCH":"2026-03-09T23:12:06.356736","MEAN_MOTION":14.95113684,"ECCENTRICITY":0.01234897,"INCLINATION":98.3546,"RA_OF_ASC_NODE":329.2242,"ARG_OF_PERICENTER":331.1085,"MEAN_ANOMALY":28.3333,"EPHEMERIS_TYPE":0,"CLASSIFICATION_TYPE":"U","NORAD_CAT_ID":36039,"ELEMENT_SET_NO":999,"REV_AT_EPOCH":88779,"BSTAR":0.00015970397,"MEAN_MOTION_DOT":1.961e-5,"MEAN_MOTION_DDOT":0}]
